{
  "type": "FeatureCollection",
  "features": [
    {
      "type": "Feature",
      "properties": {
        "norad_id": 58647,
        "name": "TIANMU-1 13",
        "group": "weather",
        "lat": -48.96008123391867,
        "lon": 29.477982820276424,
        "alt_km": 499.95736214492626,
        "timestamp": "2025-12-27T13:34:48.933295+00:00",
        "meta_object_name": "TIANMU-1 13",
        "meta_object_id": "2023-205C",
        "meta_epoch": "2025-12-27T07:29:48.852672",
        "meta_mean_motion": 15.2470828,
        "meta_eccentricity": 0.00068586,
        "meta_inclination": 97.3617,
        "meta_ra_of_asc_node": 20.6877,
        "meta_arg_of_pericenter": 204.3514,
        "meta_mean_anomaly": 155.74,
        "meta_ephemeris_type": 0,
        "meta_classification_type": "U",
        "meta_norad_cat_id": 58647,
        "meta_element_set_no": 999,
        "meta_rev_at_epoch": 11129,
        "meta_bstar": 0.00027256054,
        "meta_mean_motion_dot": 6.676e-05,
        "meta_mean_motion_ddot": 0,
        "tle_line1": "1 58647U 23205C   25361.31237098  .00006676  00000+0  27256-3 0  9991",
        "tle_line2": "2 58647  97.3617  20.6877 0006858 204.3514 155.7400 15.24708280111294"
      },
      "geometry": {
        "type": "Point",
        "coordinates": [
          29.477982820276424,
          -48.96008123391867
        ]
      }
    },
    {
      "type": "Feature",
      "properties": {
        "norad_id": 58648,
        "name": "TIANMU-1 14",
        "group": "weather",
        "lat": 40.136609753454316,
        "lon": 14.01933210886218,
        "alt_km": 493.72679038849583,
        "timestamp": "2025-12-27T13:34:48.933306+00:00",
        "meta_object_name": "TIANMU-1 14",
        "meta_object_id": "2023-205D",
        "meta_epoch": "2025-12-27T07:06:08.600832",
        "meta_mean_motion": 15.24691341,
        "meta_eccentricity": 0.00075332,
        "meta_inclination": 97.3549,
        "meta_ra_of_asc_node": 20.0068,
        "meta_arg_of_pericenter": 210.5119,
        "meta_mean_anomaly": 149.5681,
        "meta_ephemeris_type": 0,
        "meta_classification_type": "U",
        "meta_norad_cat_id": 58648,
        "meta_element_set_no": 999,
        "meta_rev_at_epoch": 11129,
        "meta_bstar": 0.00030023867,
        "meta_mean_motion_dot": 7.359e-05,
        "meta_mean_motion_ddot": 0,
        "tle_line1": "1 58648U 23205D   25361.29593288  .00007359  00000+0  30024-3 0  9991",
        "tle_line2": "2 58648  97.3549  20.0068 0007533 210.5119 149.5681 15.24691341111297"
      },
      "geometry": {
        "type": "Point",
        "coordinates": [
          14.01933210886218,
          40.136609753454316
        ]
      }
    },
    {
      "type": "Feature",
      "properties": {
        "norad_id": 58660,
        "name": "TIANMU-1 19",
        "group": "weather",
        "lat": 63.04006417019724,
        "lon": -52.540677513815766,
        "alt_km": 474.45132436647054,
        "timestamp": "2025-12-27T13:34:48.933317+00:00",
        "meta_object_name": "TIANMU-1 19",
        "meta_object_id": "2023-208A",
        "meta_epoch": "2025-12-27T06:47:17.266272",
        "meta_mean_motion": 15.28119924,
        "meta_eccentricity": 0.00049501,
        "meta_inclination": 97.4383,
        "meta_ra_of_asc_node": 112.2932,
        "meta_arg_of_pericenter": 192.4715,
        "meta_mean_anomaly": 167.6403,
        "meta_ephemeris_type": 0,
        "meta_classification_type": "U",
        "meta_norad_cat_id": 58660,
        "meta_element_set_no": 999,
        "meta_rev_at_epoch": 11104,
        "meta_bstar": 0.00038949856,
        "meta_mean_motion_dot": 0.00010611,
        "meta_mean_motion_ddot": 0,
        "tle_line1": "1 58660U 23208A   25361.28283873  .00010611  00000+0  38950-3 0  9994",
        "tle_line2": "2 58660  97.4383 112.2932 0004950 192.4715 167.6403 15.28119924111044"
      },
      "geometry": {
        "type": "Point",
        "coordinates": [
          -52.540677513815766,
          63.04006417019724
        ]
      }
    },
    {
      "type": "Feature",
      "properties": {
        "norad_id": 58661,
        "name": "TIANMU-1 20",
        "group": "weather",
        "lat": -72.17765080512642,
        "lon": -90.91804258703485,
        "alt_km": 481.9890869320461,
        "timestamp": "2025-12-27T13:34:48.933329+00:00",
        "meta_object_name": "TIANMU-1 20",
        "meta_object_id": "2023-208B",
        "meta_epoch": "2025-12-27T06:11:34.059840",
        "meta_mean_motion": 15.29310085,
        "meta_eccentricity": 0.00069571,
        "meta_inclination": 97.4321,
        "meta_ra_of_asc_node": 112.7305,
        "meta_arg_of_pericenter": 206.6493,
        "meta_mean_anomaly": 153.4391,
        "meta_ephemeris_type": 0,
        "meta_classification_type": "U",
        "meta_norad_cat_id": 58661,
        "meta_element_set_no": 999,
        "meta_rev_at_epoch": 11111,
        "meta_bstar": 0.00039251011,
        "meta_mean_motion_dot": 0.00011096,
        "meta_mean_motion_ddot": 0,
        "tle_line1": "1 58661U 23208B   25361.25803310  .00011096  00000+0  39251-3 0  9999",
        "tle_line2": "2 58661  97.4321 112.7305 0006957 206.6493 153.4391 15.29310085111115"
      },
      "geometry": {
        "type": "Point",
        "coordinates": [
          -90.91804258703485,
          -72.17765080512642
        ]
      }
    },
    {
      "type": "Feature",
      "properties": {
        "norad_id": 58662,
        "name": "TIANMU-1 21",
        "group": "weather",
        "lat": 33.0005204111659,
        "lon": 110.14691530632898,
        "alt_km": 472.6758225994363,
        "timestamp": "2025-12-27T13:34:48.933341+00:00",
        "meta_object_name": "TIANMU-1 21",
        "meta_object_id": "2023-208C",
        "meta_epoch": "2025-12-27T07:09:51.151680",
        "meta_mean_motion": 15.31869643,
        "meta_eccentricity": 0.00065827,
        "meta_inclination": 97.437,
        "meta_ra_of_asc_node": 114.7449,
        "meta_arg_of_pericenter": 200.725,
        "meta_mean_anomaly": 159.3725,
        "meta_ephemeris_type": 0,
        "meta_classification_type": "U",
        "meta_norad_cat_id": 58662,
        "meta_element_set_no": 999,
        "meta_rev_at_epoch": 11122,
        "meta_bstar": 0.00039947028,
        "meta_mean_motion_dot": 0.00012228,
        "meta_mean_motion_ddot": 0,
        "tle_line1": "1 58662U 23208C   25361.29850870  .00012228  00000+0  39947-3 0  9997",
        "tle_line2": "2 58662  97.4370 114.7449 0006582 200.7250 159.3725 15.31869643111221"
      },
      "geometry": {
        "type": "Point",
        "coordinates": [
          110.14691530632898,
          33.0005204111659
        ]
      }
    },
    {
      "type": "Feature",
      "properties": {
        "norad_id": 58663,
        "name": "TIANMU-1 22",
        "group": "weather",
        "lat": 74.5386492941798,
        "lon": -39.18782976975187,
        "alt_km": 475.84756539974023,
        "timestamp": "2025-12-27T13:34:48.933351+00:00",
        "meta_object_name": "TIANMU-1 22",
        "meta_object_id": "2023-208D",
        "meta_epoch": "2025-12-27T06:50:27.710880",
        "meta_mean_motion": 15.27854472,
        "meta_eccentricity": 0.00031104,
        "meta_inclination": 97.4378,
        "meta_ra_of_asc_node": 112.3477,
        "meta_arg_of_pericenter": 214.4018,
        "meta_mean_anomaly": 145.702,
        "meta_ephemeris_type": 0,
        "meta_classification_type": "U",
        "meta_norad_cat_id": 58663,
        "meta_element_set_no": 999,
        "meta_rev_at_epoch": 11105,
        "meta_bstar": 0.00036857958,
        "meta_mean_motion_dot": 9.954e-05,
        "meta_mean_motion_ddot": 0,
        "tle_line1": "1 58663U 23208D   25361.28504295  .00009954  00000+0  36858-3 0  9994",
        "tle_line2": "2 58663  97.4378 112.3477 0003110 214.4018 145.7020 15.27854472111050"
      },
      "geometry": {
        "type": "Point",
        "coordinates": [
          -39.18782976975187,
          74.5386492941798
        ]
      }
    },
    {
      "type": "Feature",
      "properties": {
        "norad_id": 58700,
        "name": "TIANMU-1 15",
        "group": "weather",
        "lat": 60.56357012352635,
        "lon": 169.54706116230952,
        "alt_km": 490.212344458535,
        "timestamp": "2025-12-27T13:34:48.933363+00:00",
        "meta_object_name": "TIANMU-1 15",
        "meta_object_id": "2024-004A",
        "meta_epoch": "2025-12-27T07:00:38.399040",
        "meta_mean_motion": 15.24604145,
        "meta_eccentricity": 0.0006149,
        "meta_inclination": 97.4632,
        "meta_ra_of_asc_node": 182.7071,
        "meta_arg_of_pericenter": 228.3621,
        "meta_mean_anomaly": 131.709,
        "meta_ephemeris_type": 0,
        "meta_classification_type": "U",
        "meta_norad_cat_id": 58700,
        "meta_element_set_no": 999,
        "meta_rev_at_epoch": 10956,
        "meta_bstar": 0.00031453545,
        "meta_mean_motion_dot": 7.689e-05,
        "meta_mean_motion_ddot": 0,
        "tle_line1": "1 58700U 24004A   25361.29211110  .00007689  00000+0  31454-3 0  9993",
        "tle_line2": "2 58700  97.4632 182.7071 0006149 228.3621 131.7090 15.24604145109567"
      },
      "geometry": {
        "type": "Point",
        "coordinates": [
          169.54706116230952,
          60.56357012352635
        ]
      }
    }
  ]
}